[
  {
    "name": "ONEWEB-0578",
    "noradId": "56067",
    "line1": "1 56067U 23043X   26200.12221174  .00000164  00000+0  36454-3 0  9991",
    "line2": "2 56067  87.9238 237.6176 0002040  85.5738 274.5629 13.21827058162457"
  },
  {
    "name": "ONEWEB-0579",
    "noradId": "56068",
    "line1": "1 56068U 23043Y   26200.18947785 -.00000051  00000+0 -15382-3 0  9995",
    "line2": "2 56068  87.9239 237.6023 0002075 102.2331 257.9036 13.21823402162472"
  },
  {
    "name": "ONEWEB-0581",
    "noradId": "56069",
    "line1": "1 56069U 23043Z   26200.06898036  .00000028  00000+0  40838-4 0  9994",
    "line2": "2 56069  87.9072 222.4508 0001499  92.9040 267.2262 13.16595968163157"
  },
  {
    "name": "ONEWEB-0609",
    "noradId": "56070",
    "line1": "1 56070U 23043AA  26200.20152166  .00000131  00000+0  31329-3 0  9998",
    "line2": "2 56070  87.8977 252.8320 0002137  96.2788 263.8585 13.15547316160641"
  },
  {
    "name": "ONEWEB-0613",
    "noradId": "56071",
    "line1": "1 56071U 23043AB  26200.19914479  .00000116  00000+0  27303-3 0  9990",
    "line2": "2 56071  87.8976 252.8449 0002211 102.6179 257.5199 13.15548007160641"
  },
  {
    "name": "ONEWEB-0630",
    "noradId": "56072",
    "line1": "1 56072U 23043AC  26200.19438125 -.00000007  00000+0 -52301-4 0  9998",
    "line2": "2 56072  87.8985 252.8195 0002198 102.6926 257.4450 13.15549736160632"
  },
  {
    "name": "ONEWEB-0632",
    "noradId": "56073",
    "line1": "1 56073U 23043AD  26200.18964150 -.00000040  00000+0 -13981-3 0  9997",
    "line2": "2 56073  87.8981 252.8370 0001893  98.4769 261.6576 13.15548090160630"
  },
  {
    "name": "ONEWEB-0633",
    "noradId": "56074",
    "line1": "1 56074U 23043AE  26200.18329962 -.00000064  00000+0 -20402-3 0  9996",
    "line2": "2 56074  87.8991 252.8165 0002468 102.4553 257.6853 13.15548989160618"
  },
  {
    "name": "ONEWEB-0634",
    "noradId": "56075",
    "line1": "1 56075U 23043AF  26200.16904185 -.00000093  00000+0 -28186-3 0  9990",
    "line2": "2 56075  87.8981 252.8565 0002216  89.4220 270.7164 13.15547891160609"
  },
  {
    "name": "ONEWEB-0635",
    "noradId": "56076",
    "line1": "1 56076U 23043AG  26200.16428499  .00000055  00000+0  11314-3 0  9991",
    "line2": "2 56076  87.8990 252.8225 0001766  96.9445 263.1886 13.15548741160639"
  },
  {
    "name": "ONEWEB-0636",
    "noradId": "56077",
    "line1": "1 56077U 23043AH  26200.15635974  .00000046  00000+0  87170-4 0  9993",
    "line2": "2 56077  87.8993 252.8306 0001801  95.9523 264.1813 13.15547678160616"
  },
  {
    "name": "ONEWEB-0637",
    "noradId": "56078",
    "line1": "1 56078U 23043AJ  26200.15002299  .00000315  00000+0  80134-3 0  9993",
    "line2": "2 56078  87.8980 252.8450 0001897  92.4899 267.6449 13.15547878160633"
  },
  {
    "name": "ONEWEB-0647",
    "noradId": "56079",
    "line1": "1 56079U 23043AK  26200.14526502  .00000189  00000+0  46905-3 0  9998",
    "line2": "2 56079  87.8985 252.8590 0001943  99.7632 260.3718 13.15549844160624"
  },
  {
    "name": "ONEWEB-0651",
    "noradId": "56080",
    "line1": "1 56080U 23043AL  26200.29263650  .00000215  00000+0  53620-3 0  9990",
    "line2": "2 56080  87.8979 252.8230 0001825  94.0782 266.0557 13.15548250161842"
  },
  {
    "name": "ONEWEB-0718",
    "noradId": "56081",
    "line1": "1 56081U 23043AM  26200.21181414  .00000199  00000+0  49428-3 0  9992",
    "line2": "2 56081  87.8983 252.8192 0002510  92.9025 267.2393 13.15549366160641"
  },
  {
    "name": "ONEWEB-0561",
    "noradId": "56710",
    "line1": "1 56710U 23068A   26200.24279147  .00000055  00000+0  10377-3 0  9994",
    "line2": "2 56710  87.9182 268.0559 0001759 105.9103 254.2224 13.20769626153734"
  },
  {
    "name": "ONEWEB-0668",
    "noradId": "56711",
    "line1": "1 56711U 23068B   26200.11964855  .00000121  00000+0  28371-3 0  9995",
    "line2": "2 56711  87.9076 222.4293 0002268  79.9341 280.2045 13.16595155155984"
  },
  {
    "name": "ONEWEB-0676",
    "noradId": "56712",
    "line1": "1 56712U 23068C   26200.12754550  .00002020  00000+0  52486-2 0  9999",
    "line2": "2 56712  87.9079 222.4343 0001813  94.4421 265.6917 13.16612758155906"
  },
  {
    "name": "ONEWEB-0677",
    "noradId": "56713",
    "line1": "1 56713U 23068D   26200.23101616  .00000117  00000+0  25596-3 0  9999",
    "line2": "2 56713  87.9179 268.0496 0001809  89.1059 271.0281 13.20772270154035"
  },
  {
    "name": "ONEWEB-0678",
    "noradId": "56714",
    "line1": "1 56714U 23068E   26200.10407501 -.00000080  00000+0 -24636-3 0  9993",
    "line2": "2 56714  87.8989 252.8364 0002087 104.6723 255.4639 13.15548386153483"
  },
  {
    "name": "ONEWEB-0679",
    "noradId": "56715",
    "line1": "1 56715U 23068F   26200.08640398 -.00000028  00000+0 -10795-3 0  9997",
    "line2": "2 56715  87.9079 222.4333 0001857  76.9879 283.1459 13.16594395155922"
  },
  {
    "name": "ONEWEB-0680",
    "noradId": "56716",
    "line1": "1 56716U 23068G   26200.19116508 -.00000088  00000+0 -24402-3 0  9997",
    "line2": "2 56716  87.9239 237.6036 0002116  78.6334 281.5037 13.21825947155327"
  },
  {
    "name": "ONEWEB-0681",
    "noradId": "56717",
    "line1": "1 56717U 23068H   26200.17181061 -.00000017  00000+0 -71582-4 0  9996",
    "line2": "2 56717  87.9238 237.6079 0001099 102.5537 257.5720 13.21827771155313"
  },
  {
    "name": "ONEWEB-0682",
    "noradId": "56718",
    "line1": "1 56718U 23068J   26200.20390306  .00000118  00000+0  28012-3 0  9994",
    "line2": "2 56718  87.8985 252.8166 0002084  82.2730 277.8637 13.15548100153669"
  },
  {
    "name": "ONEWEB-0683",
    "noradId": "56719",
    "line1": "1 56719U 23068K   26200.15160776  .00000122  00000+0  28936-3 0  9995",
    "line2": "2 56719  87.8994 252.8272 0002119  88.0736 272.0637 13.15548438153624"
  },
  {
    "name": "ONEWEB-0684",
    "noradId": "56720",
    "line1": "1 56720U 23068L   26200.15952325  .00000052  00000+0  10334-3 0  9991",
    "line2": "2 56720  87.8990 252.8149 0003138 115.8008 244.3446 13.15550053153455"
  },
  {
    "name": "ONEWEB-0686",
    "noradId": "56721",
    "line1": "1 56721U 23068M   26200.12282617  .00000052  00000+0  10210-3 0  9992",
    "line2": "2 56721  87.9071 222.4468 0002376  90.8545 269.2859 13.16593921155914"
  },
  {
    "name": "ONEWEB-0694",
    "noradId": "56722",
    "line1": "1 56722U 23068N   26200.12916051  .00000047  00000+0  88184-4 0  9999",
    "line2": "2 56722  87.9089 222.4162 0002213  81.6959 278.4423 13.16593300155978"
  },
  {
    "name": "ONEWEB-0696",
    "noradId": "56723",
    "line1": "1 56723U 23068P   26200.19279471  .00000050  00000+0  99711-4 0  9997",
    "line2": "2 56723  87.8976 252.8445 0002126 110.3953 249.7406 13.15549872153571"
  },
  {
    "name": "ONEWEB-0703",
    "noradId": "56724",
    "line1": "1 56724U 23068Q   26200.20231230  .00000108  00000+0  25306-3 0  9993",
    "line2": "2 56724  87.8979 252.8239 0001886 123.4628 236.6683 13.15547398153463"
  }
]