OBJECT_NAME,OBJECT_ID,EPOCH,MEAN_MOTION,ECCENTRICITY,INCLINATION,RA_OF_ASC_NODE,ARG_OF_PERICENTER,MEAN_ANOMALY,EPHEMERIS_TYPE,CLASSIFICATION_TYPE,NORAD_CAT_ID,ELEMENT_SET_NO,REV_AT_EPOCH,BSTAR,MEAN_MOTION_DOT,MEAN_MOTION_DDOT
ONEWEB-0578,2023-043X,2026-07-19T02:55:59.094336,13.21827058,.000204,87.9238,237.6176,85.5738,274.5629,0,U,56067,999,16245,.36453803E-3,.164E-5,0
ONEWEB-0579,2023-043Y,2026-07-19T04:32:50.886240,13.21823402,.00020751,87.9239,237.6023,102.2331,257.9036,0,U,56068,999,16247,-.15381648E-3,-.51E-6,0
ONEWEB-0581,2023-043Z,2026-07-19T01:39:19.903104,13.16595968,.00014998,87.9072,222.4508,92.9040,267.2262,0,U,56069,999,16315,.40837786E-4,.28E-6,0
ONEWEB-0609,2023-043AA,2026-07-19T04:50:11.471424,13.15547316,.00021373,87.8977,252.8320,96.2788,263.8585,0,U,56070,999,16064,.31329019E-3,.131E-5,0
ONEWEB-0613,2023-043AB,2026-07-19T04:46:46.109856,13.15548007,.00022118,87.8976,252.8449,102.6179,257.5199,0,U,56071,999,16064,.27302917E-3,.116E-5,0
ONEWEB-0630,2023-043AC,2026-07-19T04:39:54.540000,13.15549736,.00021989,87.8985,252.8195,102.6926,257.4450,0,U,56072,999,16063,-.52301433E-4,-.7E-7,0
ONEWEB-0632,2023-043AD,2026-07-19T04:33:05.025600,13.15548090,.00018936,87.8981,252.8370,98.4769,261.6576,0,U,56073,999,16063,-.13981427E-3,-.4E-6,0
ONEWEB-0633,2023-043AE,2026-07-19T04:23:57.087168,13.15548989,.00024682,87.8991,252.8165,102.4553,257.6853,0,U,56074,999,16061,-.20401664E-3,-.64E-6,0
ONEWEB-0634,2023-043AF,2026-07-19T04:03:25.215840,13.15547891,.00022161,87.8981,252.8565,89.4220,270.7164,0,U,56075,999,16060,-.28185925E-3,-.93E-6,0
ONEWEB-0635,2023-043AG,2026-07-19T03:56:34.223136,13.15548741,.00017662,87.8990,252.8225,96.9445,263.1886,0,U,56076,999,16063,.11314412E-3,.55E-6,0
ONEWEB-0636,2023-043AH,2026-07-19T03:45:09.481536,13.15547678,.00018013,87.8993,252.8306,95.9523,264.1813,0,U,56077,999,16061,.87170158E-4,.46E-6,0
ONEWEB-0637,2023-043AJ,2026-07-19T03:36:01.986336,13.15547878,.00018973,87.8980,252.8450,92.4899,267.6449,0,U,56078,999,16063,.80133726E-3,.315E-5,0
ONEWEB-0647,2023-043AK,2026-07-19T03:29:10.897728,13.15549844,.00019436,87.8985,252.8590,99.7632,260.3718,0,U,56079,999,16062,.46905293E-3,.189E-5,0
ONEWEB-0651,2023-043AL,2026-07-19T07:01:23.793600,13.15548250,.00018254,87.8979,252.8230,94.0782,266.0557,0,U,56080,999,16184,.53619992E-3,.215E-5,0
ONEWEB-0718,2023-043AM,2026-07-19T05:05:00.741696,13.15549366,.00025109,87.8983,252.8192,92.9025,267.2393,0,U,56081,999,16064,.49427845E-3,.199E-5,0
ONEWEB-0561,2023-068A,2026-07-19T05:49:37.183008,13.20769626,.00017595,87.9182,268.0559,105.9103,254.2224,0,U,56710,999,15373,.10377474E-3,.55E-6,0
ONEWEB-0668,2023-068B,2026-07-19T02:52:17.634720,13.16595155,.0002268,87.9076,222.4293,79.9341,280.2045,0,U,56711,999,15598,.28370906E-3,.121E-5,0
ONEWEB-0676,2023-068C,2026-07-19T03:03:39.931200,13.16612758,.00018138,87.9079,222.4343,94.4421,265.6917,0,U,56712,999,15590,.52486319E-2,.202E-4,0
ONEWEB-0677,2023-068D,2026-07-19T05:32:39.796224,13.20772270,.00018094,87.9179,268.0496,89.1059,271.0281,0,U,56713,999,15403,.25595999E-3,.117E-5,0
ONEWEB-0678,2023-068E,2026-07-19T02:29:52.080864,13.15548386,.00020872,87.8989,252.8364,104.6723,255.4639,0,U,56714,999,15348,-.24635743E-3,-.8E-6,0
ONEWEB-0679,2023-068F,2026-07-19T02:04:25.303872,13.16594395,.00018571,87.9079,222.4333,76.9879,283.1459,0,U,56715,999,15592,-.10794977E-3,-.28E-6,0
ONEWEB-0680,2023-068G,2026-07-19T04:35:16.662912,13.21825947,.00021168,87.9239,237.6036,78.6334,281.5037,0,U,56716,999,15532,-.24402347E-3,-.88E-6,0
ONEWEB-0681,2023-068H,2026-07-19T04:07:24.436704,13.21827771,.00010996,87.9238,237.6079,102.5537,257.5720,0,U,56717,999,15531,-.71581844E-4,-.17E-6,0
ONEWEB-0682,2023-068J,2026-07-19T04:53:37.224384,13.15548100,.00020843,87.8985,252.8166,82.2730,277.8637,0,U,56718,999,15366,.28012312E-3,.118E-5,0
ONEWEB-0683,2023-068K,2026-07-19T03:38:18.910464,13.15548438,.00021195,87.8994,252.8272,88.0736,272.0637,0,U,56719,999,15362,.28936275E-3,.122E-5,0
ONEWEB-0684,2023-068L,2026-07-19T03:49:42.808800,13.15550053,.0003138,87.8990,252.8149,115.8008,244.3446,0,U,56720,999,15345,.10333852E-3,.52E-6,0
ONEWEB-0686,2023-068M,2026-07-19T02:56:52.181088,13.16593921,.00023764,87.9071,222.4468,90.8545,269.2859,0,U,56721,999,15591,.10210161E-3,.52E-6,0
ONEWEB-0694,2023-068N,2026-07-19T03:05:59.468064,13.16593300,.00022133,87.9089,222.4162,81.6959,278.4423,0,U,56722,999,15597,.88184376E-4,.47E-6,0
ONEWEB-0696,2023-068P,2026-07-19T04:37:37.462944,13.15549872,.0002126,87.8976,252.8445,110.3953,249.7406,0,U,56723,999,15357,.99710721E-4,.5E-6,0
ONEWEB-0703,2023-068Q,2026-07-19T04:51:19.782720,13.15547398,.0001886,87.8979,252.8239,123.4628,236.6683,0,U,56724,999,15346,.2530595E-3,.108E-5,0
